#aV2020 12 14  0  0  0.00000000     288 DD+AD WGS84 FIT  NGA
## 2136  86400.00000000   300.00000000 59197 0.0000000000000
+   32     1  2  3  4  5  6  7  8  9 10 11 12 13 14 15 16 17
+         18 19 20 21 22 23 24 25 26 27 28 29 30 31 32  0  0
+          0  0  0  0  0  0  0  0  0  0  0  0  0  0  0  0  0
+          0  0  0  0  0  0  0  0  0  0  0  0  0  0  0  0  0
+          0  0  0  0  0  0  0  0  0  0  0  0  0  0  0  0  0
++         2  2  2  2  2  2  2  2  2  2  2  2  2  2  2  2  2
++         2  2  2  2  2  2  2  2  2  2  2  2  2  2  2  0  0
++         0  0  0  0  0  0  0  0  0  0  0  0  0  0  0  0  0
++         0  0  0  0  0  0  0  0  0  0  0  0  0  0  0  0  0
++         0  0  0  0  0  0  0  0  0  0  0  0  0  0  0  0  0
%c cc cc ccc ccc cccc cccc cccc cccc ccccc ccccc ccccc ccccc
%c cc cc ccc ccc cccc cccc cccc cccc ccccc ccccc ccccc ccccc
%f  0.0000000  0.000000000  0.00000000000  0.000000000000000
%f  0.0000000  0.000000000  0.00000000000  0.000000000000000
%i    0    0    0    0      0      0      0      0         0
%i    0    0    0    0      0      0      0      0         0
/*      NGA, ST. LOUIS,MO.                                  
/*   EPHEMERIS COMPUTED FROM 2 DAYS OF DATA                 
/*   EPOCHA v5 SMOOTHER                                     
/*   G1762 IERS2010 SATAF SATAPC                            
*  2020 12 14 16 10  0.00000000
P  1 -13718.187307   6559.258636  21494.706586    795.816585                    
V  1  -3500.988932 -27635.939155   6452.385076     -0.052091                    
P  2  13724.644165  16519.948811 -14973.653751   -554.339970                    
V  2   1551.606268  20246.863796  22771.765070     -0.044656                    
P  3 -22816.177008  12403.595652   5234.476112    -29.714440                    
V  3   3879.259146  -6127.452455  31042.594649     -0.099856                    
P  4 -21401.920955   1972.312674 -15632.377123   -164.268327                    
V  4 -17086.209870 -10272.005269  22046.158036     -0.033417                    
P  5  17520.398941   3956.152393 -19777.809379    -28.347255                    
V  5 -18660.313727  16290.417849 -13195.597321     -0.009788                    
P  6   5694.780108  25574.893611  -4155.460155     -3.922796                    
V  6  -1520.783746   5554.519786  31675.248544     -0.007081                    
P  7  -7163.548702  21478.013894 -13150.907109   -433.763915                    
V  7  -4675.817680 -17056.647038 -25177.488925     -0.074193                    
P  8 -25054.739952  -4284.916226   8204.988338     -2.880613                    
V  8  -8697.502958  -5954.529198 -29430.195062     -0.014180                    
P  9 -11304.365561  11582.192362 -21126.632029   -301.331598                    
V  9 -24405.294747 -10859.917419   7106.773285     -0.044501                    
P 10   4593.712613 -18915.268933  18044.991522    -15.879060                    
V 10  19240.175116 -12337.180822 -18185.552111     -0.088313                    
P 11 -18439.211121  -1923.177494  18441.461455    -81.468491                    
V 11 -11893.211927 -21720.935280 -14181.284883      0.105548                    
P 12  23646.757621  -8734.225540   7872.498307     26.995244                    
V 12  -7466.406267   7541.043878  30041.273966     -0.052233                    
P 13  23009.339184  13381.941378    487.790787     74.984901                    
V 13   -621.110567   2558.537488 -31815.068200      0.039746                    
P 14  -7801.277763  19227.397746  16574.646375     63.543074                    
V 14 -18519.254110  10199.320865 -20541.370360      0.104809                    
P 15  25278.002098   1290.782159   8279.614787   -183.316141                    
V 15   9480.287809   6398.415692 -28344.782450      0.025850                    
P 16 -17030.190280  -5461.656796 -20010.109117   -250.313255                    
V 16  20736.081549 -13496.984088 -13673.747920     -0.054452                    
P 17   6780.360120  17681.065178  19065.718377    366.977191                    
V 17 -21175.214106  -9629.639314  16828.355729      0.050266                    
P 18   6075.756028 -22991.789454 -11775.947262    332.424416                    
V 18   3609.159741  14688.883563 -26884.090612      0.037762                    
P 19  13707.075406  18133.035932  13521.776995    -65.380553                    
V 19 -16158.855709  -7132.349657  25335.961482      0.050061                    
P 20  13636.491511 -21288.607399   7617.671276    525.611653                    
V 20   9544.681229  -4368.783908 -29309.231718     -0.001734                    
P 21 -16113.638841  -2578.411631  21751.985173     77.562667                    
V 21  -4409.839262 -25491.156397  -6128.892617      0.035156                    
P 22 -22096.721570   6685.063059  13189.147074   -715.314132                    
V 22  10354.525353 -13261.912425  24591.494203      0.060016                    
P 23  14262.716373 -19995.857341  10038.326682    109.968839                    
V 23  11615.942921  -5914.210189 -28238.064598      0.029842                    
P 24  15497.001981  -2228.303720  21228.840419      5.139805                    
V 24   5032.501626  27129.677352   -427.741431     -0.005841                    
P 25  19201.128042 -17734.277536  -4038.221205     39.812834                    
V 25   5634.826193   -567.849710  31438.860524      0.071090                    
P 26  -7317.032759 -13974.990695 -21387.281254     14.331380                    
V 26  21475.413213 -16618.407845   3773.418349      0.058780                    
P 27 -23241.725553 -12774.389442  -3661.518465    -34.755823                    
V 27   4830.038333    -52.053843 -31431.220575     -0.080703                    
P 28  -4577.794225  18183.214663  19456.790317    643.193102                    
V 28 -20490.307324  11325.958226 -15704.672087     -0.049376                    
P 29  13239.933168  -8998.103215 -21239.008725   -255.958303                    
V 29  23505.651510  12899.155623   9160.770851     -0.075181                    
P 30   -620.824492  26148.023030  -3848.874295   -352.250334                    
V 30  -4093.195488  -4661.618561 -30859.654725     -0.063540                    
P 31  -6957.573014 -24472.706490  -6789.985953    -87.572839                    
V 31   2405.177058  -8894.446603  30357.070430     -0.023980                    
P 32  -8126.637785 -17542.621322  18367.959429      8.021538                    
V 32  21832.540796   7694.244361  16928.436335      0.025771                    
EOF
